,Rank,School,Type,Grades,Address,City,Zip,Latitude,Longitude,Is Charter,Is Magnet,Is Virtual,Is Title I,Phone,Full_Address
0,1,Academy For Information Technology,Public,12-Sep,1776 Raritan Road,Scotch Plains,7076,40.6180513,-74.3570355,No,(n/a),No,No,(908) 889-8288,"1776 Raritan Road, Scotch Plains, NJ 07076"
1,1,Academy for Mathematics Science and Engineering,Public,12-Sep,520 West Main Street,Rockaway,7866,40.890836,-74.52918,No,(n/a),No,No,(973) 664-2301,"520 West Main Street, Rockaway, NJ 07866"
2,1,Bergen County Academies,Public,12-Sep,200 Hackensack Avenue,Hackensack,7601,40.9017414,-74.0335932,No,(n/a),No,No,(201) 343-6000,"200 Hackensack Avenue, Hackensack, NJ 07601"
3,1,Communications High School,Public,12-Sep,1740 New Bedford Road,Wall,7719,40.16990089999999,-74.0620491,No,(n/a),No,No,(732) 681-1010,"1740 New Bedford Road, Wall, NJ 07719"
4,1,Dr Ronald McNair High School,Public,12-Sep,123 Coles Street,Jersey City,7302,40.72683019999999,-74.0474017,No,(n/a),No,Yes,(201) 418-7617,"123 Coles Street, Jersey City, NJ 07302"
5,1,Marine Academy Of Science And Technology,Public,12-Sep,305 Mast Way,Highlands,7732,40.4602808,-73.9996845,No,(n/a),No,No,(732) 291-0995,"305 Mast Way, Highlands, NJ 07732"
6,1,Marine Academy of Technology and Environmental Science,Public,12-Sep,195 Cedar Bridge Road,Manahawkin,8050,39.7162774,-74.25566800000001,No,(n/a),No,No,(609) 978-8439,"195 Cedar Bridge Road, Manahawkin, NJ 08050"
7,1,Middlesex County Vocational Academy Math Science &Engineering Techn,Public,12-Sep,100 Technology Drive,Edison,8837,40.5045558,-74.36955019999999,No,(n/a),No,No,(732) 452-2600,"100 Technology Drive, Edison, NJ 08837"
8,1,Monmouth County Academy of Allied Health and Science,Public,12-Sep,2325 Heck Avenue,Neptune,7753,40.21468180000001,-74.0378187,No,(n/a),No,No,(732) 775-0058,"2325 Heck Avenue, Neptune, NJ 07753"
9,1,Union County Magnet High School,Public,12-Sep,1776 Raritan Road,Scotch Plains,7076,40.6180513,-74.3570355,No,(n/a),No,No,(908) 889-8288,"1776 Raritan Road, Scotch Plains, NJ 07076"
10,11,High Technology High School,Public,12-Sep,765 Newman Springs Road,Lincroft,7738,40.3263561,-74.1311317,No,(n/a),No,No,(732) 842-8444,"765 Newman Springs Road, Lincroft, NJ 07738"
11,12,Science Park High School,Public,12-Jul,260 Norfolk Street,Newark,7102,40.739939,-74.1854638,No,(n/a),No,Yes,(973) 733-8689,"260 Norfolk Street, Newark, NJ 07102"
12,13,High Technical High School,Public,12-Sep,1 High Tech Way,Secaucus,7094,40.7611192,-74.0828525,No,(n/a),No,Yes,(201) 662-6801,"1 High Tech Way, Secaucus, NJ 07094"
13,14,Mountain Lakes High School,Public,12-Sep,96 Powerville Rd.,Mountain Lakes,7046,40.8952526,-74.42718980000001,No,(n/a),No,No,(973) 334-8400,"96 Powerville Rd., Mountain Lakes, NJ 07046"
14,15,Millburn High School,Public,12-Sep,462 Millburn Ave,Millburn,7041,40.7204896,-74.31569569999999,No,(n/a),No,No,(973) 564-7130,"462 Millburn Ave, Millburn, NJ 07041"
15,16,Ramsey High School,Public,12-Sep,256 E Main Street,Ramsey,7446,41.0568526,-74.13442309999999,No,(n/a),No,No,(201) 785-2300,"256 E Main Street, Ramsey, NJ 07446"
16,17,Glen Ridge High School,Public,12-Jul,200 Ridgewood Ave,Glen Ridge,7028,40.7993268,-74.2064682,No,(n/a),No,No,(973) 429-8303,"200 Ridgewood Ave, Glen Ridge, NJ 07028"
17,18,Montgomery High School,Public,12-Sep,1016 Route 601,Skillman,8558,40.4174592,-74.7064384,No,(n/a),No,Yes,(609) 466-7602,"1016 Route 601, Skillman, NJ 08558"
18,19,Holmdel High School,Public,12-Sep,36 Crawfords Corner Road,Holmdel,7733,40.3813183,-74.17875769999999,No,(n/a),No,Yes,(732) 946-1832,"36 Crawfords Corner Road, Holmdel, NJ 07733"
19,20,Ridgewood High School,Public,12-Sep,627 East Ridgewood Ave,Ridgewood,7451,40.977754,-74.105593,No,(n/a),No,No,(201) 670-2800,"627 East Ridgewood Ave, Ridgewood, NJ 07451"
20,21,Ridge High School,Public,12-Sep,268 South Finley Avenue,Basking Ridge,7920,40.6943602,-74.5468722,No,(n/a),No,No,(908) 204-2585,"268 South Finley Avenue, Basking Ridge, NJ 07920"
21,22,Northern Valley Regional High School At Demarest,Public,12-Sep,150 Knickerbocker Road,Demarest,7627,40.9625641,-73.9740798,No,(n/a),No,No,(201) 768-3200,"150 Knickerbocker Road, Demarest, NJ 07627"
22,23,Park Ridge High School,Public,12-Jul,2 Park Ave,Park Ridge,7656,41.0346734,-74.0427237,No,(n/a),No,No,(201) 573-6000,"2 Park Ave, Park Ridge, NJ 07656"
23,24,West Windsor-Plainsboro High School North,Public,12-Sep,90 Grovers Mill Road,Plainsboro,8536,40.3224272,-74.60069639999999,No,(n/a),No,Yes,(609) 716-5100,"90 Grovers Mill Road, Plainsboro, NJ 08536"
24,25,Performing Arts Academy of the Ocean County Vocational Technical,Public,12-Sep,Route 547,Lakehurst,8733,40.0182789,-74.3098488,No,(n/a),No,No,(732) 286-5678,"Route 547, Lakehurst, NJ 08733"
25,26,Governor Livingston High School,Public,12-Sep,175 Watchung Boulevard,Berkeley Heights,7922,40.6871612,-74.38687879999999,No,(n/a),No,Yes,(908) 464-3100,"175 Watchung Boulevard, Berkeley Heights, NJ 07922"
26,27,Livingston High School,Public,12-Sep,30 Robert Harp Drive,Livingston,7039,40.7839726,-74.3209948,No,(n/a),No,Yes,(973) 535-8000,"30 Robert Harp Drive, Livingston, NJ 07039"
27,28,Rumson-Fair Haven Regional High School,Public,12-Sep,74 Ridge Road,Rumson,7760,40.3692353,-74.00191219999999,No,(n/a),No,Yes,(732) 842-1597,"74 Ridge Road, Rumson, NJ 07760"
28,29,Cherry Hill High School East,Public,12-Sep,1750 Kresson Rd.,Cherry Hill,8003,39.8766671,-74.9641666,No,(n/a),No,No,(856) 424-2222,"1750 Kresson Rd., Cherry Hill, NJ 08003"
29,30,Mahwah High School,Public,12-Sep,50 Ridge Road,Mahwah,7430,41.0921068,-74.1581842,No,(n/a),No,No,(201) 762-2300,"50 Ridge Road, Mahwah, NJ 07430"
30,31,Marlboro High School,Public,12-Sep,95 North Main Street,Marlboro,7746,40.329545,-74.2470946,No,(n/a),No,No,(732) 617-8393,"95 North Main Street, Marlboro, NJ 07746"
31,32,Sparta High School,Public,12-Sep,70 West Mountain Road,Sparta,7871,41.0542749,-74.624737,No,(n/a),No,Yes,(973) 729-6191,"70 West Mountain Road, Sparta, NJ 07871"
32,33,Hasbrouck Heights High School,Public,12-Sep,365 Boulevard,Hasbrouck Heights,7604,40.8667137,-74.0738908,No,(n/a),No,No,(201) 288-6150,"365 Boulevard, Hasbrouck Heights, NJ 07604"
33,34,West Morris Central High School,Public,12-Sep,259 Bartley Road,Chester,7930,40.8122949,-74.7292699,No,(n/a),No,No,(908) 879-5212,"259 Bartley Road, Chester, NJ 07930"
34,35,West Morris Mendham High School,Public,12-Sep,65 East Main Street,Mendham,7945,40.7761621,-74.5920761,No,(n/a),No,No,(973) 543-2501,"65 East Main Street, Mendham, NJ 07945"
35,36,West Windsor-Plainsboro High School South,Public,12-Sep,346 Clarksville Road,West Windsor,8550,40.305586,-74.618714,No,(n/a),No,Yes,(609) 716-5050,"346 Clarksville Road, West Windsor, NJ 08550"
36,37,Manalapan High School,Public,12-Sep,20 Church Lane,Englishtown,7726,40.290075,-74.3351859,No,(n/a),No,No,(732) 792-7200,"20 Church Lane, Englishtown, NJ 07726"
37,38,Tenafly High School,Public,12-Sep,19 Columbus Drive,Tenafly,7670,40.9332115,-73.9662898,No,(n/a),No,No,(201) 816-6614,"19 Columbus Drive, Tenafly, NJ 07670"
38,39,North Hunterdon High School,Public,12-Sep,1445 State Route 31,Annandale,8801,40.6280379,-74.8834779,No,(n/a),No,No,(908) 735-5191,"1445 State Route 31, Annandale, NJ 08801"
39,40,Pascack Hills High School,Public,12-Sep,225 West Grand Avenue,Montvale,7645,41.0495456,-74.0495917,No,(n/a),No,No,(201) 358-7020,"225 West Grand Avenue, Montvale, NJ 07645"
40,41,Northern Highlands Regional High School,Public,12-Sep,298 Hillside Ave,Allendale,7401,41.0357203,-74.1437679,No,(n/a),No,Yes,(201) 327-8700,"298 Hillside Ave, Allendale, NJ 07401"
41,42,Cranford High School,Public,12-Sep,201 West End Place,Cranford,7016,40.6620994,-74.31323069999999,No,(n/a),No,No,(908) 709-6272,"201 West End Place, Cranford, NJ 07016"
42,43,Glen Rock High School,Public,12-Sep,400 Hamilton Avenue,Glen Rock,7452,40.955201,-74.12261889999999,No,(n/a),No,No,(201) 445-7700,"400 Hamilton Avenue, Glen Rock, NJ 07452"
43,44,Shawnee High School,Public,12-Sep,600 Tabernacle Road,Medford,8055,39.85558899999999,-74.77536359999999,No,(n/a),No,No,(609) 654-7544,"600 Tabernacle Road, Medford, NJ 08055"
44,45,Bergen County Technical High School - Teterboro,Public,12-Sep,504 Route 46 West,Teterboro,7608,40.8604412,-74.0547977,No,(n/a),No,No,(201) 343-6000,"504 Route 46 West, Teterboro, NJ 07608"
45,46,Indian Hills High School,Public,12-Sep,97 Yawpo Ave,Oakland,7436,41.022626,-74.23127,No,(n/a),No,Yes,(201) 337-0100,"97 Yawpo Ave, Oakland, NJ 07436"
46,47,Morris County School of Technology,Public,12-Sep,400 East Main Street,Denville,7834,40.8785707,-74.4791225,No,(n/a),No,No,(973) 627-4600,"400 East Main Street, Denville, NJ 07834"
47,48,Pitman High School,Public,12-Sep,225 Linden Avenue,Pitman,8071,39.7406336,-75.12708239999999,No,(n/a),No,No,(856) 589-2121,"225 Linden Avenue, Pitman, NJ 08071"
48,49,Point Pleasant Beach High School,Public,12-Sep,700 Trenton Avenue,Point Pleasant Beach,8742,40.0888635,-74.0521586,No,(n/a),No,Yes,(732) 899-1817,"700 Trenton Avenue, Point Pleasant Beach, NJ 08742"
49,50,Montville Township High School,Public,12-Sep,100 Horseneck Road,Montville,7045,40.8933696,-74.3604198,No,(n/a),No,No,(973) 331-7100,"100 Horseneck Road, Montville, NJ 07045"
50,51,Hopewell Valley Central High School,Public,12-Sep,259 Pennington Titusville Rd,Pennington,8534,40.327897,-74.8040552,No,(n/a),No,No,(609) 737-4003,"259 Pennington Titusville Rd, Pennington, NJ 08534"
51,52,Haddonfield Memorial High School,Public,12-Sep,401 Kings Highway East,Haddonfield,8033,39.9019489,-75.0264294,No,(n/a),No,No,(856) 429-3960,"401 Kings Highway East, Haddonfield, NJ 08033"
52,53,Bernards High School,Public,12-Sep,25 Olcott Avenue,Bernardsville,7924,40.7213623,-74.5671292,No,(n/a),No,No,(908) 630-3000,"25 Olcott Avenue, Bernardsville, NJ 07924"
53,54,Chatham High School,Public,12-Sep,255 Lafayette Avenue,Chatham,7928,40.7315069,-74.4006307,No,(n/a),No,No,(973) 457-2505,"255 Lafayette Avenue, Chatham, NJ 07928"
54,55,Princeton High School,Public,12-Sep,151 Moore Street,Princeton,8540,40.3572615,-74.65550089999999,No,(n/a),No,No,(609) 806-4280,"151 Moore Street, Princeton, NJ 08540"
55,56,Pascack Valley High School,Public,12-Sep,200 Piermont Avenue,Hillsdale,7642,41.0090971,-74.0290024,No,(n/a),No,No,(201) 358-7060,"200 Piermont Avenue, Hillsdale, NJ 07642"
56,57,Verona High School,Public,12-Sep,151 Fairview Ave,Verona,7044,40.8412784,-74.24803760000002,No,(n/a),No,No,(973) 571-6750,"151 Fairview Ave, Verona, NJ 07044"
57,58,Ramapo High School,Public,12-Sep,331 George Street,Franklin Lakes,7417,40.9981332,-74.1926112,No,(n/a),No,No,(201) 891-1500,"331 George Street, Franklin Lakes, NJ 07417"
58,59,Gloucester County Institute of Technology,Public,12-Sep,1360 Tanyard Road,Sewell,8080,39.7882239,-75.12346749999999,No,(n/a),No,Yes,(856) 468-1445,"1360 Tanyard Road, Sewell, NJ 08080"
59,60,Kittatinny Regional High School,Public,12-Jul,77 Halsey Road,Newton,7860,41.08791859999999,-74.7435225,No,(n/a),No,Yes,(973) 383-1800,"77 Halsey Road, Newton, NJ 07860"
60,61,Atlantic County Institute of Technology,Public,12-Sep,5080 Atlantic Avenue,Mays Landing,8330,39.4422898,-74.69655449999999,No,(n/a),No,Yes,(609) 625-2249,"5080 Atlantic Avenue, Mays Landing, NJ 08330"
61,62,Randolph High School,Public,12-Sep,511 Millbrook Avenue,Randolph,7869,40.8464632,-74.5666272,No,(n/a),No,No,(973) 361-2400,"511 Millbrook Avenue, Randolph, NJ 07869"
62,63,Scotch Plains-Fanwood High School,Public,12-Sep,667 Westfield Road,Scotch Plains,7076,40.6530424,-74.38506269999999,No,(n/a),No,Yes,(908) 889-8600,"667 Westfield Road, Scotch Plains, NJ 07076"
63,64,Northern Valley Regional High School at Old Tappan,Public,12-Sep,140 Central Avenue,Old Tappan,7675,41.009123,-73.97879,No,(n/a),No,Yes,(201) 784-1600,"140 Central Avenue, Old Tappan, NJ 07675"
64,65,Summit High School,Public,12-Sep,125 Kent Place Blvd,Summit,7901,40.720822,-74.370617,No,(n/a),No,Yes,(908) 273-1494,"125 Kent Place Blvd, Summit, NJ 07901"
65,66,River Dell Regional High School,Public,12-Sep,55 Pyle Street,Oradell,7649,40.9443083,-74.0363466,No,(n/a),No,Yes,(201) 599-7240,"55 Pyle Street, Oradell, NJ 07649"
66,67,Kinnelon High School,Public,12-Sep,121 Kinnelon Road,Kinnelon,7405,40.9963753,-74.377956,No,(n/a),No,Yes,(973) 838-5500,"121 Kinnelon Road, Kinnelon, NJ 07405"
67,68,Freehold Borough High School,Public,12-Sep,2 Robertsville Road,Freehold,7728,40.26772709999999,-74.268367,No,(n/a),No,Yes,(732) 431-8360,"2 Robertsville Road, Freehold, NJ 07728"
68,69,Hunterdon Central Regional High School District,Public,12-Sep,84 Route 31,Flemington,8822,40.5171201,-74.851901,No,(n/a),No,Yes,(908) 782-5727,"84 Route 31, Flemington, NJ 08822"
69,70,Voorhees High School,Public,12-Sep,256 County Route 513,Glen Gardner,8826,40.6957702,-74.8868766,No,(n/a),No,Yes,(908) 638-6116,"256 County Route 513, Glen Gardner, NJ 08826"
70,71,Westfield Senior High School,Public,12-Sep,550 Dorian Road,Westfield,7090,40.644764,-74.3492799,No,(n/a),No,No,(908) 789-4500,"550 Dorian Road, Westfield, NJ 07090"
71,72,Watchung Hills Regional High School,Public,12-Sep,108 Stirling Rd.,Warren,7059,40.6525753,-74.4754909,No,(n/a),No,Yes,(908) 647-4800,"108 Stirling Rd., Warren, NJ 07059"
72,73,James Caldwell High School,Public,12-Sep,265 Westville Ave,West Caldwell,7006,40.8421379,-74.2963789,No,(n/a),No,No,(973) 228-6981,"265 Westville Ave, West Caldwell, NJ 07006"
73,74,West Essex High School,Public,12-Sep,65 West Greenbrook Rd,North Caldwell,7006,40.8745177,-74.26920369999999,No,(n/a),No,Yes,(973) 228-1200,"65 West Greenbrook Rd, North Caldwell, NJ 07006"
74,75,High Point Regional High School District,Public,12-Sep,299 Pidgeon Hill Road,Sussex,7461,41.19984789999999,-74.6461236,No,(n/a),No,Yes,(973) 875-3101,"299 Pidgeon Hill Road, Sussex, NJ 07461"
75,76,South Brunswick High School,Public,12-Sep,750 Ridge Road,Monmouth Junction,8852,40.3738104,-74.5640925,No,(n/a),No,No,(732) 329-4044,"750 Ridge Road, Monmouth Junction, NJ 08852"
76,77,Whippany Park High School,Public,12-Sep,165 Whippany Road,Whippany,7981,40.8142162,-74.42370869999999,No,(n/a),No,Yes,(973) 887-3004,"165 Whippany Road, Whippany, NJ 07981"
77,78,University High School,Public,12-Jul,55 Clinton Pl,Newark,7108,40.7213685,-74.2112375,No,(n/a),No,Yes,(973) 374-3190,"55 Clinton Pl, Newark, NJ 07108"
78,79,New Providence High School,Public,12-Sep,35 Pioneer Dr,New Providence,7974,40.7006081,-74.4087203,No,(n/a),No,Yes,(908) 464-4700,"35 Pioneer Dr, New Providence, NJ 07974"
79,80,Hillsborough High School,Public,12-Sep,466 Raider Boulevard,Hillsborough,8844,40.4961069,-74.65596239999999,No,(n/a),No,No,(908) 431-6600,"466 Raider Boulevard, Hillsborough, NJ 08844"
80,81,Cape May County Technical High SChool,Public,12-Sep,188 Crest Haven Rd,Cape May Court House,8210,39.1045804,-74.79846239999999,No,(n/a),No,Yes,(609) 380-0200,"188 Crest Haven Rd, Cape May Court House, NJ 08210"
81,82,Shore Regional High School,Public,12-Sep,132 Monmouth Park Highway 36,West Long Branch,7764,40.2955204,-74.0225177,No,(n/a),No,Yes,(732) 222-9300,"132 Monmouth Park Highway 36, West Long Branch, NJ 07764"
82,83,Hanover Park High School,Public,12-Sep,63 Mt Pleasant Avenue,East Hanover,7936,40.8041642,-74.37307249999999,No,(n/a),No,No,(973) 887-0300,"63 Mt Pleasant Avenue, East Hanover, NJ 07936"
83,84,East Brunswick High School,Public,12-Oct,380 Cranbury Road,E Brunswick,8816,40.4328315,-74.3982401,No,(n/a),No,No,(732) 613-6904,"380 Cranbury Road, E Brunswick, NJ 08816"
84,85,Westwood Junior/Senior High School,Public,12-Aug,701 Ridgewood Road,Township Of Washington,7676,40.9796629,-74.06113119999999,No,(n/a),No,No,(201) 664-0880,"701 Ridgewood Road, Township Of Washington, NJ 07676"
85,86,Colts Neck High School,Public,12-Sep,59 Five Points Road,Colts Neck,7722,40.2762786,-74.2089446,No,(n/a),No,No,(732) 761-0190,"59 Five Points Road, Colts Neck, NJ 07722"
86,87,Bridgewater-Raritan High School,Public,12-Sep,600 Garretson Road,Bridgewater,8807,40.59281780000001,-74.63338399999999,No,(n/a),No,No,(908) 231-8660,"600 Garretson Road, Bridgewater, NJ 08807"
87,88,Cherokee High School,Public,12-Sep,120 Tomlinson Mill Road,Marlton,8053,39.8738383,-74.8994508,No,(n/a),No,No,(856) 983-5140,"120 Tomlinson Mill Road, Marlton, NJ 08053"
88,89,Wayne Valley High School,Public,12-Sep,551 Valley Road,Wayne,7470,40.9306949,-74.23067999999999,No,(n/a),No,Yes,(973) 317-2200,"551 Valley Road, Wayne, NJ 07470"
89,90,Dumont High School,Public,12-Sep,101 New Milford Ave,Dumont,7628,40.9436379,-73.99797,No,(n/a),No,No,(201) 387-3000,"101 New Milford Ave, Dumont, NJ 07628"
90,91,Wayne Hills High School,Public,12-Sep,272 Berdan Avenue,Wayne,7470,40.9683449,-74.2390272,No,(n/a),No,No,(973) 317-2000,"272 Berdan Avenue, Wayne, NJ 07470"
91,92,Roxbury High School,Public,12-Sep,One Bryant Drive,Succasunna,7876,40.8619227,-74.6407752,No,(n/a),No,No,(973) 584-1200,"One Bryant Drive, Succasunna, NJ 07876"
92,93,Madison High School,Public,12-Sep,170 Ridgedale Avenue,Madison,7940,40.76974999999999,-74.4087761,No,(n/a),No,No,(973) 593-3117,"170 Ridgedale Avenue, Madison, NJ 07940"
93,94,Mainland Regional High School,Public,12-Sep,1301 Oak Avenue,Linwood,8221,39.3467747,-74.57743479999999,No,(n/a),No,Yes,(609) 927-4151,"1301 Oak Avenue, Linwood, NJ 08221"
94,95,Middletown High School South,Public,12-Sep,900 Nut Swamp Road,Middletown,7748,40.3632816,-74.11518950000001,No,(n/a),No,No,(732) 706-6111,"900 Nut Swamp Road, Middletown, NJ 07748"
95,96,John P. Stevens High School,Public,12-Sep,855 Grove Avenue,Edison,8820,40.5802663,-74.3614965,No,(n/a),No,No,(732) 452-2800,"855 Grove Avenue, Edison, NJ 08820"
96,97,Eastern Regional High School,Public,12-Sep,1401 Laurel Oak Road,Voorhees,8043,39.84915600000001,-74.966819,No,(n/a),No,Yes,(856) 784-4441,"1401 Laurel Oak Road, Voorhees, NJ 08043"
97,98,Moorestown High School,Public,12-Sep,350 Bridgeboro Road,Moorestown,8057,39.9857575,-74.94460819999999,No,(n/a),No,Yes,(856) 778-6610,"350 Bridgeboro Road, Moorestown, NJ 08057"
98,99,South Plainfield High School,Public,12-Sep,200 Lake Street,South Plainfield,7080,40.5891604,-74.41244069999999,No,(n/a),No,No,(908) 754-4620,"200 Lake Street, South Plainfield, NJ 07080"
99,100,Manasquan High School,Public,12-Sep,167 Broad Street,Manasquan,8736,40.1276872,-74.0491983,No,(n/a),No,No,(732) 528-8820,"167 Broad Street, Manasquan, NJ 08736"
100,101,North Star Academy Charter School,"Public, Charter, Alternative",K-12,10 Washington Place,Newark,7102,40.7423008,-74.1699335,Yes,(n/a),No,Yes,(973) 642-0101,"10 Washington Place, Newark, NJ 07102"
101,102,Northern Burlington County Regional High School,Public,12-Sep,160 Mansfield Road East,Columbus,8022,40.0882,-74.6855999,No,(n/a),No,Yes,(609) 298-3900,"160 Mansfield Road East, Columbus, NJ 08022"
102,103,Pequannock Township High School,Public,12-Sep,85 Sunset Road,Pompton Plains,7444,40.9605569,-74.30567959999999,No,(n/a),No,Yes,(973) 616-6000,"85 Sunset Road, Pompton Plains, NJ 07444"
103,104,Lenape High School,Public,12-Sep,235 Hartford Road,Medford,8055,39.9208626,-74.854551,No,(n/a),No,Yes,(609) 654-5111,"235 Hartford Road, Medford, NJ 08055"
104,105,Parsippany High School,Public,12-Sep,309 Baldwin Rd,Parsippany,7054,40.8697257,-74.3919421,No,(n/a),No,Yes,(973) 263-7001,"309 Baldwin Rd, Parsippany, NJ 07054"
105,106,Cedar Grove High School,Public,12-Sep,90 Rugby Road,Cedar Grove,7009,40.8513707,-74.2233547,No,(n/a),No,No,(973) 239-6400,"90 Rugby Road, Cedar Grove, NJ 07009"
106,107,Somerville High School,Public,12-Sep,222 Davenport St.,Somerville,8876,40.578621,-74.611487,No,(n/a),No,No,(908) 218-4108,"222 Davenport St., Somerville, NJ 08876"
107,108,Cresskill High School,Public,12-Sep,1 Lincoln Dr,Cresskill,7626,40.9482849,-73.96408579999999,No,(n/a),No,No,(201) 227-7791,"1 Lincoln Dr, Cresskill, NJ 07626"
108,109,Cinnaminson High School,Public,12-Sep,1197 Riverton Road,Cinnaminson,8077,40.00753,-74.9963978,No,(n/a),No,Yes,(856) 829-7770,"1197 Riverton Road, Cinnaminson, NJ 08077"
109,110,Spotswood High School,Public,12-Sep,105 Summerhill Road,Spotswood,8884,40.3985818,-74.3884155,No,(n/a),No,No,(732) 723-2200,"105 Summerhill Road, Spotswood, NJ 08884"
110,111,Kingsway Regional High School,Public,12-Sep,201 Kings Highway,Woolwich Twp,8085,39.761012,-75.2907417,No,(n/a),No,Yes,(856) 467-3300,"201 Kings Highway, Woolwich Twp, NJ 08085"
111,112,Wall High School,Public,12-Sep,1630 18th Ave,Wall,7719,40.1685461,-74.06102659999999,No,(n/a),No,Yes,(732) 556-2040,"1630 18th Ave, Wall, NJ 07719"
112,113,Washington Township High School,Public,12-Sep,519 Hurffville Crosskeys Rd,Sewell,8080,39.7421989,-75.0767266,No,(n/a),No,No,(856) 589-8500,"519 Hurffville Crosskeys Rd, Sewell, NJ 08080"
113,114,Jefferson Township High School,Public,12-Sep,1010 Weldon Rd Rd2,Oak Ridge,7438,41.016582,-74.55273609999999,No,(n/a),No,No,(973) 697-3535,"1010 Weldon Rd Rd2, Oak Ridge, NJ 07438"
114,115,Waldwick High School,Public,12-Sep,155 Wyckoff Avenue,Waldwick,7463,41.0117019,-74.1334468,No,(n/a),No,No,(201) 652-9000,"155 Wyckoff Avenue, Waldwick, NJ 07463"
115,116,Union County Technical,Public,12-Sep,1776 Raritan Rd,Scotch Plains,7076,40.6180513,-74.3570355,No,(n/a),No,Yes,(908) 889-8288,"1776 Raritan Rd, Scotch Plains, NJ 07076"
116,117,Manchester Township High School,Public,12-Sep,101 S Colonial Dr,Manchester,8759,40.0055734,-74.3101712,No,(n/a),No,No,(732) 657-2121,"101 S Colonial Dr, Manchester, NJ 08759"
117,118,Cherry Hill High School West,Public,12-Sep,2101 Chapel Ave.,Cherry Hill,8034,39.9296442,-75.0200399,No,(n/a),No,Yes,(856) 663-8006,"2101 Chapel Ave., Cherry Hill, NJ 08034"
118,119,Seneca High School,Public,12-Sep,110 Carranza Road,Tabernacle,8088,39.8573385,-74.717795,No,(n/a),No,Yes,(609) 268-4600,"110 Carranza Road, Tabernacle, NJ 08088"
119,120,Parsippany Hills High School,Public,12-Sep,20 Rita Drive,Morris Plains,7950,40.86156,-74.45640949999999,No,(n/a),No,No,(973) 682-2815,"20 Rita Drive, Morris Plains, NJ 07950"
120,121,Fair Lawn High School,Public,12-Sep,14 00 Berdan Avenue,Fair Lawn,7410,40.93258670000001,-74.1245849,No,(n/a),No,Yes,(201) 794-5455,"14 00 Berdan Avenue, Fair Lawn, NJ 07410"
121,122,John F. Kennedy Memorial High School,Public,12-Sep,200 Washington Avenue,Iselin,8830,40.5724891,-74.3036398,No,(n/a),No,No,(732) 602-8650,"200 Washington Avenue, Iselin, NJ 08830"
122,123,Freehold Township High School,Public,12-Sep,281 Elton Adelphia Road,Freehold,7728,40.2201507,-74.28263570000001,No,(n/a),No,Yes,(732) 431-8460,"281 Elton Adelphia Road, Freehold, NJ 07728"
123,124,Jonathan Dayton High School,Public,12-Sep,139 Mountain Ave.,Springfield,7081,40.7061943,-74.31429609999999,No,(n/a),No,Yes,(973) 376-1025,"139 Mountain Ave., Springfield, NJ 07081"
124,125,Newton High School,Public,12-Sep,44 Ryerson Avenue,Newton,7860,41.05084069999999,-74.7604988,No,(n/a),No,No,(973) 383-7573,"44 Ryerson Avenue, Newton, NJ 07860"
125,126,Point Pleasant Borough High School,Public,12-Sep,Laura Herbert Dr,Point Pleasant Beach,8742,40.079162,-74.0718299,No,(n/a),No,No,(732) 701-1900,"Laura Herbert Dr, Point Pleasant Beach, NJ 08742"
126,127,Mount Olive High School,Public,12-Sep,18 Corey Road,Flanders,7836,40.858616,-74.713984,No,(n/a),No,No,(973) 927-2208,"18 Corey Road, Flanders, NJ 07836"
127,128,Salem County Career and Technical High School,Public,12-Sep,880 Route 45,Woodstown,8098,39.6287177,-75.3667787,No,(n/a),No,No,(856) 769-0101,"880 Route 45, Woodstown, NJ 08098"
128,129,Ocean Township High School,Public,12-Sep,550 West Park Avenue,Oakhurst,7755,40.2671832,-74.02933519999999,No,(n/a),No,No,(732) 531-5650,"550 West Park Avenue, Oakhurst, NJ 07755"
129,130,Howell High School,Public,12-Sep,405 Squankum Yellowbrook Road,Farmingdale,7727,40.1862284,-74.1790427,No,(n/a),No,No,(732) 919-2131,"405 Squankum Yellowbrook Road, Farmingdale, NJ 07727"
130,131,Gateway Regional High School,Public,12-Jul,775 Tanyard Rd,Woodbury Hts,8096,39.8174389,-75.1406849,No,(n/a),No,Yes,(856) 848-8200,"775 Tanyard Rd, Woodbury Hts, NJ 08096"
131,132,Colonia High School,Public,12-Sep,East Street,Colonia,7067,40.5964971,-74.319605,No,(n/a),No,No,(732) 726-7060,"East Street, Colonia, NJ 07067"
132,133,Metuchen High School,Public,12-Sep,400 Grove Ave,Metuchen,8840,40.5536644,-74.3544671,No,(n/a),No,Yes,(732) 321-8744,"400 Grove Ave, Metuchen, NJ 08840"
133,134,Nutley High School,Public,12-Sep,300 Franklin Ave,Nutley,7110,40.8172969,-74.1601452,No,(n/a),No,Yes,(973) 661-8824,"300 Franklin Ave, Nutley, NJ 07110"
134,135,Paramus High School,Public,12-Sep,99 East Century Road,Paramus,7652,40.9283274,-74.06127479999999,No,(n/a),No,Yes,(201) 261-7800,"99 East Century Road, Paramus, NJ 07652"
135,136,Monroe Township High School,Public,12-Sep,200 Schoolhouse Road,Monroe Township,8831,40.3279448,-74.43589209999999,No,(n/a),No,Yes,(732) 521-2882,"200 Schoolhouse Road, Monroe Township, NJ 08831"
136,137,Vernon Township High School,Public,12-Sep,1832 Route 565,Vernon,7462,41.1946438,-74.6252779,No,(n/a),No,No,(973) 764-2960,"1832 Route 565, Vernon, NJ 07462"
137,138,Clearview Regional High School,Public,12-Sep,625 Breakneck Rd,Mullica Hill,8062,39.75084469999999,-75.2064892,No,(n/a),No,Yes,(856) 223-2790,"625 Breakneck Rd, Mullica Hill, NJ 08062"
138,139,Lakeland Regional High School,Public,12-Sep,205 Conklintown Road,Wanaque,7465,41.059251,-74.282753,No,(n/a),No,Yes,(973) 835-1900,"205 Conklintown Road, Wanaque, NJ 07465"
139,140,Delaware Valley Regional High School,Public,12-Sep,19 Senator Stout Rd,Frenchtown,8825,40.5626984,-75.0057424,No,(n/a),No,Yes,(908) 996-2131,"19 Senator Stout Rd, Frenchtown, NJ 08825"
140,141,Rutherford High School,Public,12-Sep,56 Elliott Pl,Rutherford,7070,40.8288417,-74.1083965,No,(n/a),No,No,(201) 438-7675,"56 Elliott Pl, Rutherford, NJ 07070"
141,142,Fort Lee High School,Public,12-Sep,3000 Lemoine Ave,Fort Lee,7024,40.858348,-73.964789,No,(n/a),No,Yes,(201) 585-4675,"3000 Lemoine Ave, Fort Lee, NJ 07024"
142,143,Wood-Ridge Junior/Senior High School,Public,12-Jul,258 Hackensack St,Wood Ridge,7075,40.8481199,-74.08023279999999,No,(n/a),No,Yes,(201) 933-6777,"258 Hackensack St, Wood Ridge, NJ 07075"
143,144,New Milford High School,Public,12-Sep,330 River Road,New Milford,7646,40.941883,-74.02169599999999,No,(n/a),No,No,(201) 262-0172,"330 River Road, New Milford, NJ 07646"
144,145,Morris Knolls High School,Public,12-Sep,50 Knoll Drive,Denville,7834,40.8856444,-74.50858219999999,No,(n/a),No,No,(973) 664-2201,"50 Knoll Drive, Denville, NJ 07834"
145,146,Edison High School,Public,12-Sep,50 Boulevard Of The Eagles,Edison,8817,40.5143871,-74.3863107,No,(n/a),No,Yes,(732) 650-5200,"50 Boulevard Of The Eagles, Edison, NJ 08817"
146,147,Triton Regional High School,Public,12-Sep,250 Schubert Ave,Runnemede,8078,39.8493802,-75.0622801,No,(n/a),No,Yes,(856) 939-4500,"250 Schubert Ave, Runnemede, NJ 08078"
147,148,Wallington Junior Senior High School,Public,12-Jul,234 Main Ave,Wallington,7057,40.8549136,-74.10683639999999,No,(n/a),No,No,(973) 777-0808,"234 Main Ave, Wallington, NJ 07057"
148,149,Emerson Junior Senior High,Public,12-Jul,131 Main Street,Emerson,7630,40.9726428,-74.0175265,No,(n/a),No,Yes,(201) 262-4447,"131 Main Street, Emerson, NJ 07630"
149,150,Raritan High School,Public,12-Sep,419 Middle Road,Hazlet,7730,40.4275234,-74.15131459999999,No,(n/a),No,No,(732) 264-8411,"419 Middle Road, Hazlet, NJ 07730"
150,151,Delsea Regional High School,Public,12-Sep,242 Fries Mill Rd,Franklinville,8322,39.6083488,-75.0653126,No,(n/a),No,Yes,(856) 694-0100,"242 Fries Mill Rd, Franklinville, NJ 08322"
151,152,Haddon Township High School,Public,12-Sep,406 Memorial Avenue,Westmont,8108,39.9042379,-75.05655159999999,No,(n/a),No,No,(856) 869-7750,"406 Memorial Avenue, Westmont, NJ 08108"
152,153,Ocean City High School,Public,12-Sep,501 Atlantic Avenue,Ocean City,8226,39.2798001,-74.5673819,No,(n/a),No,No,(609) 399-1290,"501 Atlantic Avenue, Ocean City, NJ 08226"
153,154,Wallkill Valley Regional High School,Public,12-Sep,10 Grumm Road,Hamburg,7419,41.154101,-74.590924,No,(n/a),No,Yes,(973) 827-4100,"10 Grumm Road, Hamburg, NJ 07419"
154,155,Southern Regional High School,Public,12-Sep,90 Cedar Bridge Road,Manahawkin,8050,39.7118241,-74.25388,No,(n/a),No,Yes,(609) 597-9481,"90 Cedar Bridge Road, Manahawkin, NJ 08050"
155,156,Collingswood High School,Public,12-Sep,424 Collings Ave,Collingswood,8108,39.91276,-75.07731299999999,No,(n/a),No,Yes,(856) 962-5701,"424 Collings Ave, Collingswood, NJ 08108"
156,157,Piscataway Township High School,Public,12-Sep,100 Behmer Road,Piscataway,8854,40.5457326,-74.47106339999999,No,(n/a),No,Yes,(732) 981-0700,"100 Behmer Road, Piscataway, NJ 08854"
157,158,Lacey Township High School,Public,12-Sep,73 Haines Street,Lanoka Harbor,8734,39.8606743,-74.19486409999999,No,(n/a),No,No,(609) 971-2020,"73 Haines Street, Lanoka Harbor, NJ 08734"
158,159,Brick Township Memorial High School,Public,12-Sep,2001 Lanes Mill Rd,Brick,8724,40.104411,-74.1291093,No,(n/a),No,No,(732) 785-3000,"2001 Lanes Mill Rd, Brick, NJ 08724"
159,160,Warren Hills Regional High School,Public,12-Sep,41 Jackson Valley Road,Washington,7882,40.77439409999999,-74.98388779999999,No,(n/a),No,No,(908) 689-3050,"41 Jackson Valley Road, Washington, NJ 07882"
160,161,West Deptford High School,Public,12-Sep,1600 Old Crown Point Rd,West Deptford,8093,39.8548757,-75.16195119999999,No,(n/a),No,No,(856) 848-6110,"1600 Old Crown Point Rd, West Deptford, NJ 08093"
161,162,Delran High School,Public,12-Sep,50 Hartford Road,Delran,8075,40.0132905,-74.9440595,No,(n/a),No,No,(856) 461-6100,"50 Hartford Road, Delran, NJ 08075"
162,163,Jackson Memorial High School,Public,12-Sep,101 Don Connor Boulevard,Jackson,8527,40.1071828,-74.3457318,No,(n/a),No,No,(732) 833-4670,"101 Don Connor Boulevard, Jackson, NJ 08527"
163,164,Midland Park Junior/Senior High School,Public,12-Jul,250 Prospect St,Midland Park,7432,41.0001462,-74.13656639999999,No,(n/a),No,Yes,(201) 444-7400,"250 Prospect St, Midland Park, NJ 07432"
164,165,Florence Township Memorial High School,Public,12-Sep,1050 Cedar Lane,Burlington,8016,40.093616,-74.79347190000001,No,(n/a),No,Yes,(609) 499-4620,"1050 Cedar Lane, Burlington, NJ 08016"
165,166,West Milford High School,Public,12-Sep,67 Highlander Drive,West Milford,7480,41.0791232,-74.38128950000001,No,(n/a),No,No,(973) 838-6515,"67 Highlander Drive, West Milford, NJ 07480"
166,167,Weehawken High School,Public,12-Jul,53 Liberty Place,Weehawken,7086,40.7738908,-74.0179416,No,(n/a),No,Yes,(201) 422-6130,"53 Liberty Place, Weehawken, NJ 07086"
167,168,Saddle Brook Middle/High School,Public,12-Jul,355 Mayhill Street,Saddle Brook,7663,40.9049018,-74.0908684,No,(n/a),No,Yes,(201) 843-2880,"355 Mayhill Street, Saddle Brook, NJ 07663"
168,169,Burlington Township High School,Public,12-Sep,610 Fountain Avenue,Burlington,8016,40.0641382,-74.83535959999999,No,(n/a),No,Yes,(609) 387-1713,"610 Fountain Avenue, Burlington, NJ 08016"
169,170,Lenape Valley Regional High School,Public,12-Sep,28 Sparta Road,Stanhope,7874,40.91974,-74.700322,No,(n/a),No,Yes,(973) 347-7600,"28 Sparta Road, Stanhope, NJ 07874"
170,171,Secaucus High School,Public,12-Sep,11 Mill Ridge Road,Secaucus,7094,40.8033613,-74.05088549999999,No,(n/a),No,Yes,(201) 974-2033,"11 Mill Ridge Road, Secaucus, NJ 07094"
171,172,Hackettstown High School,Public,12-Sep,599 Warren Street,Hackettstown,7840,40.843186,-74.830174,No,(n/a),No,No,(908) 852-8150,"599 Warren Street, Hackettstown, NJ 07840"
172,173,Toms River High School North,Public,12-Sep,1245 Old Freehold Road,Toms River,8753,39.9823146,-74.1918678,No,(n/a),No,No,(732) 505-5702,"1245 Old Freehold Road, Toms River, NJ 08753"
173,174,South Hunterdon Regional High School,Public,12-Jul,301 Mt Airy Harbourton Road,Lambertville,8530,40.386799,-74.89294799999999,No,(n/a),No,(n/a),(609) 397-2060,"301 Mt Airy Harbourton Road, Lambertville, NJ 08530"
174,175,Matawan Regional High School,Public,12-Sep,450 Atlantic Avenue,Aberdeen,7747,40.4112981,-74.2224919,No,(n/a),No,No,(732) 705-5200,"450 Atlantic Avenue, Aberdeen, NJ 07747"
175,176,Monmouth Regional High School,Public,12-Sep,One Norman J Field Way,Tinton Falls,7724,40.303775,-74.091048,No,(n/a),No,Yes,(732) 542-1170,"One Norman J Field Way, Tinton Falls, NJ 07724"
176,177,Bordentown Regional High School,Public,12-Sep,318 Ward Ave,Bordentown,8505,40.1543033,-74.68402669999999,No,(n/a),No,No,(609) 298-0025,"318 Ward Ave, Bordentown, NJ 08505"
177,178,Willliamstown High School,Public,12-Sep,700 N Tuckahoe Rd,Williamstown,8094,39.6822522,-75.0105483,No,(n/a),No,No,(856) 262-8200,"700 N Tuckahoe Rd, Williamstown, NJ 08094"
178,179,Lawrence High School,Public,12-Sep,2525 Princeton Pike,Lawrenceville,8648,40.2648678,-74.7297736,No,(n/a),No,No,(609) 671-5510,"2525 Princeton Pike, Lawrenceville, NJ 08648"
179,180,Pennsville Memorial High School,Public,12-Sep,110 S Broadway,Pennsville,8070,39.6510907,-75.5178918,No,(n/a),No,No,(856) 540-6200,"110 S Broadway, Pennsville, NJ 08070"
180,181,Middletown High School North,Public,12-Sep,63 Tindall Road,Middletown,7748,40.4023311,-74.0975797,No,(n/a),No,No,(732) 706-6061,"63 Tindall Road, Middletown, NJ 07748"
181,182,Allentown High School,Public,12-Sep,27 High Street,Allentown,8501,40.1732018,-74.5868772,No,(n/a),No,Yes,(609) 259-7292,"27 High Street, Allentown, NJ 08501"
182,183,Dr. Charles E. Brimm Medical Arts High School,Public,12-Sep,1626 Copewood Street,Camden,8103,39.9236995,-75.0953337,No,(n/a),No,Yes,(856) 966-2500,"1626 Copewood Street, Camden, NJ 08103"
183,184,Sayreville War Memorial High School,Public,12-Sep,820 Washington Road,Parlin,8859,40.4630356,-74.3172733,No,(n/a),No,No,(732) 525-5252,"820 Washington Road, Parlin, NJ 08859"
184,185,Manville High School,Public,12-Sep,1100 Brooks Boulevard,Manville,8835,40.5445655,-74.5982255,No,(n/a),No,No,(908) 231-6806,"1100 Brooks Boulevard, Manville, NJ 08835"
185,186,Morris Hills High School,Public,12-Sep,520 West Main Street,Rockaway,7866,40.890836,-74.52918,No,(n/a),No,Yes,(973) 664-2301,"520 West Main Street, Rockaway, NJ 07866"
186,187,Montclair High School,Public,12-Sep,100 Chestnut St,Montclair,7042,40.8232208,-74.2128884,No,(n/a),No,No,(973) 509-4100,"100 Chestnut St, Montclair, NJ 07042"
187,188,Toms River High School East,Public,12-Sep,1225 Raider Way,Toms River,8753,39.9649789,-74.141908,No,(n/a),No,No,(732) 505-5665,"1225 Raider Way, Toms River, NJ 08753"
188,189,Audubon Junior/Senior High School,Public,12-Jul,350 Edgewood Avenue,Audubon,8106,39.8844852,-75.0757598,No,(n/a),No,Yes,(856) 547-7695,"350 Edgewood Avenue, Audubon, NJ 08106"
189,190,Columbia High School,Public,12-Sep,17 Parker Ave,Maplewood,7040,40.7354856,-74.2663475,No,(n/a),No,No,(973) 762-5600,"17 Parker Ave, Maplewood, NJ 07040"
190,191,North Warren Regional School,Public,12-Jul,10 Noe Rd,Blairstown,7825,40.981884,-74.9907997,No,(n/a),No,Yes,(908) 362-8211,"10 Noe Rd, Blairstown, NJ 07825"
191,192,Sterling High School,Public,12-Sep,501 South Warwick Road,Somerdale,8083,39.8360706,-75.0258842,No,(n/a),No,Yes,(856) 784-1333,"501 South Warwick Road, Somerdale, NJ 08083"
192,193,Passaic Valley Regional High School,Public,12-Sep,170 East Main Street,Little Falls,7424,40.879005,-74.21701,No,(n/a),No,Yes,(973) 890-2500,"170 East Main Street, Little Falls, NJ 07424"
193,194,Middlesex High School,Public,12-Sep,300 John F. Kennedy Drive,Middlesex,8846,40.58246889999999,-74.4946344,No,(n/a),No,No,(732) 317-6000,"300 John F. Kennedy Drive, Middlesex, NJ 08846"
194,195,Rosa L. Parks School of Fine and Performing Arts,Public,12-Sep,413 12th Avenue,Paterson,7514,40.9207407,-74.1464754,No,(n/a),No,Yes,(973) 321-0520,"413 12th Avenue, Paterson, NJ 07514"
195,196,Henry P. Becton Regional High School,Public,12-Sep,120 Paterson Avenue,East Rutherford,7073,40.8322214,-74.0929792,No,(n/a),No,Yes,(201) 935-3007,"120 Paterson Avenue, East Rutherford, NJ 07073"
196,197,Hammonton High School,Public,12-Sep,566 Old Forks Road,Hammonton,8037,39.6565046,-74.8073024,No,(n/a),No,Yes,(609) 567-7000,"566 Old Forks Road, Hammonton, NJ 08037"
197,198,Arts High School,Public,12-Jul,550 M L King Blvd,Newark,7102,40.7340495,-74.1800976,No,(n/a),No,Yes,(973) 733-7391,"550 M L King Blvd, Newark, NJ 07102"
198,199,Morristown High School,Public,12-Sep,50 Early Street,Morristown,7960,40.8011472,-74.4864486,No,(n/a),No,No,(973) 292-2000,"50 Early Street, Morristown, NJ 07960"
199,200,Boonton High School,Public,12-Sep,306 Lathrop Avenue,Boonton,7005,40.90322099999999,-74.403031,No,(n/a),No,Yes,(973) 335-9700,"306 Lathrop Avenue, Boonton, NJ 07005"
200,201,North Bergen High School,Public,12-Sep,7417 Kennedy Blvd,North Bergen,7047,40.8015384,-74.0139459,No,(n/a),No,No,(201) 295-2800,"7417 Kennedy Blvd, North Bergen, NJ 07047"
201,202,Palisades Park Junior-Senior High School,Public,12-Jul,Veterans Plaza,Palisades Park,7650,40.8387582,-73.9938533,No,(n/a),No,Yes,(201) 941-1100,"Veterans Plaza, Palisades Park, NJ 07650"
202,203,Leonia High School,Public,12-Sep,100 Christie Heights Street,Leonia,7605,40.870303,-73.9889034,No,(n/a),No,Yes,(201) 302-5200,"100 Christie Heights Street, Leonia, NJ 07605"
203,204,Timber Creek Regional High School,Public,12-Sep,501 Jarvis Road,Erial,8081,39.7616794,-75.01785129999999,No,(n/a),No,No,(856) 232-9703,"501 Jarvis Road, Erial, NJ 08081"
204,205,Old Bridge High School,Public,12-Sep,4209 Route 516,Matawan,7747,40.4069153,-74.2720614,No,(n/a),No,No,(732) 290-3900,"4209 Route 516, Matawan, NJ 07747"
205,206,Woodstown High School,Public,12-Sep,140 East Avenue,Woodstown,8098,39.65064580000001,-75.321535,No,(n/a),No,Yes,(856) 769-0144,"140 East Avenue, Woodstown, NJ 08098"
206,207,David Brearley Middle/High School,Public,12-Jul,401 Monroe Avenue,Kenilworth,7033,40.6797075,-74.29550150000001,No,(n/a),No,No,(908) 931-9696,"401 Monroe Avenue, Kenilworth, NJ 07033"
207,208,Red Bank Regional High School,Public,12-Sep,101 Ridge Road,Little Silver,7739,40.3496858,-74.0388763,No,(n/a),No,Yes,(732) 842-8000,"101 Ridge Road, Little Silver, NJ 07739"
208,209,North Brunswick Township High School,Public,12-Sep,98 Raider Road,North Brunswick,8902,40.45292999999999,-74.4692317,No,(n/a),No,No,(732) 289-3702,"98 Raider Road, North Brunswick, NJ 08902"
209,210,Hawthorne High School,Public,12-Sep,160 Parmelee Avenue,Hawthorne,7506,40.9533911,-74.1596865,No,(n/a),No,No,(973) 423-6415,"160 Parmelee Avenue, Hawthorne, NJ 07506"
210,211,Ridgefield Park Junior Senior High School,Public,12-Jul,1 Ozzie Nelson Drive,Ridgefield Park,7660,40.85879509999999,-74.01390409999999,No,(n/a),No,Yes,(201) 440-1440,"1 Ozzie Nelson Drive, Ridgefield Park, NJ 07660"
211,212,Roselle Park High School,Public,12-Sep,185 W Webster Ave,Roselle Park,7204,40.6660149,-74.2713821,No,(n/a),No,Yes,(908) 241-4550,"185 W Webster Ave, Roselle Park, NJ 07204"
212,213,South River High School,Public,12-Sep,11 Montgomery Street,South River,8882,40.4395491,-74.38046489999999,No,(n/a),No,Yes,(732) 613-4014,"11 Montgomery Street, South River, NJ 08882"
213,214,Haddon Heights Junior/Senior High School,Public,12-Jul,301 Second Avenue,Haddon Heights,8035,39.88413,-75.0502024,No,(n/a),No,Yes,(856) 547-1920,"301 Second Avenue, Haddon Heights, NJ 08035"
214,215,Highland Regional High School,Public,12-Sep,450 Erial Road,Blackwood,8012,39.801545,-75.04910199999999,No,(n/a),No,Yes,(609) 227-4100,"450 Erial Road, Blackwood, NJ 08012"
215,216,Phillipsburg High School,Public,12-Sep,1 Stateliner Blvd.,Phillipsburg,8865,40.7145973,-75.18320949999999,No,(n/a),No,No,(908) 454-3400,"1 Stateliner Blvd., Phillipsburg, NJ 08865"
216,217,Clayton High School,Public,12-Sep,55 Pop Kramer Blvd,Clayton,8312,39.6603501,-75.0838539,No,(n/a),No,Yes,(856) 881-8701,"55 Pop Kramer Blvd, Clayton, NJ 08312"
217,218,Pompton Lakes High School,Public,12-Sep,44 Lakeside Avenue,Pompton Lakes,7442,41.0045131,-74.2886286,No,(n/a),No,No,(973) 835-7100,"44 Lakeside Avenue, Pompton Lakes, NJ 07442"
218,219,Woodbridge High School,Public,12-Sep,25 Samuel Lupo Place,Woodbridge,7095,40.5660641,-74.2870106,No,(n/a),No,No,(732) 602-8600,"25 Samuel Lupo Place, Woodbridge, NJ 07095"
219,220,Arthur P. Schalick High School,Public,12-Sep,718 Centerton Road,Pittsgrove,8318,39.5288419,-75.1631113,No,(n/a),No,Yes,(856) 358-2054,"718 Centerton Road, Pittsgrove, NJ 08318"
220,221,Hamilton East - Steinert,Public,12-Sep,2900 Klockner Road,Hamilton,8690,40.2162325,-74.6618173,No,(n/a),No,No,(609) 631-4150,"2900 Klockner Road, Hamilton, NJ 08690"
221,222,Teaneck High School,Public,12-Sep,100 Elizabeth Ave,Teaneck,7666,40.89115779999999,-74.00837680000001,No,(n/a),No,No,(201) 833-5400,"100 Elizabeth Ave, Teaneck, NJ 07666"
222,223,Bergenfield High School,Public,12-Sep,80 S Prospect Ave,Bergenfield,7621,40.9252031,-74.0074272,No,(n/a),No,Yes,(201) 385-8600,"80 S Prospect Ave, Bergenfield, NJ 07621"
223,224,Bogota Junior/Senior High School,Public,12-Jul,2 Henry C Luthin Place,Bogota,7603,40.8776442,-74.0233171,No,(n/a),No,No,(201) 441-4808,"2 Henry C Luthin Place, Bogota, NJ 07603"
224,225,Cliffside Park High School,Public,12-Sep,64 Riverview Avenue,Cliffside Park,7010,40.82152749999999,-73.98669679999999,No,(n/a),No,No,(201) 313-2370,"64 Riverview Avenue, Cliffside Park, NJ 07010"
225,226,Hightstown High School,Public,12-Sep,25 Leshin Lane,Hightstown,8520,40.2608493,-74.53128579999999,No,(n/a),No,Yes,(609) 443-7738,"25 Leshin Lane, Hightstown, NJ 08520"
226,227,Absegami High School,Public,12-Sep,201 S Wrangleboro Road,Galloway,8205,39.4807236,-74.51611630000001,No,(n/a),No,Yes,(609) 652-1372,"201 S Wrangleboro Road, Galloway, NJ 08205"
227,228,North Arlington High School,Public,12-Sep,222 Ridge Road,North Arlington,7031,40.7890856,-74.1323458,No,(n/a),No,Yes,(201) 991-6800,"222 Ridge Road, North Arlington, NJ 07031"
228,229,Lower Cape May Regional High School,Public,12-Sep,687 Rt 9,Cape May,8204,38.9770839,-74.90399339999999,No,(n/a),No,Yes,(609) 884-3475,"687 Rt 9, Cape May, NJ 08204"
229,230,Arthur L. Johnson High School,Public,12-Sep,365 Westfield Avenue,Clark,7066,40.622651,-74.312659,No,(n/a),No,Yes,(732) 382-0910,"365 Westfield Avenue, Clark, NJ 07066"
230,231,Lyndhurst High School,Public,12-Sep,400 Weart Avenue,Lyndhurst,7071,40.809043,-74.1272075,No,(n/a),No,No,(201) 896-2100,"400 Weart Avenue, Lyndhurst, NJ 07071"
231,232,New Egypt High School,Public,12-Sep,117 Evergreen Road,New Egypt,8533,40.0802066,-74.529223,No,(n/a),No,Yes,(609) 758-6800,"117 Evergreen Road, New Egypt, NJ 08533"
232,233,Kearny High School,Public,12-Sep,336 Devon St,Kearny,7032,40.7618388,-74.1472093,No,(n/a),No,No,(201) 955-5050,"336 Devon St, Kearny, NJ 07032"
233,234,Warren County Vocational Technical School,Public,12-Sep,1500 Route 57,Washington,7882,40.7420608,-75.02410549999999,No,(n/a),No,Yes,(908) 689-0122,"1500 Route 57, Washington, NJ 07882"
234,235,Ridgefield Memorial High School,Public,12-Sep,555 Walnut St,Ridgefield,7657,40.8309951,-73.9998064,No,(n/a),No,No,(201) 945-4455,"555 Walnut St, Ridgefield, NJ 07657"
235,236,Brick Township High School,Public,12-Sep,346 Chambers Bridge Rd,Brick,8723,40.073183,-74.1531728,No,(n/a),No,No,(732) 785-3000,"346 Chambers Bridge Rd, Brick, NJ 08723"
236,237,Palmyra High School,Public,12-Jul,5th & Weart Boulevard,Palmyra,8065,36.8820451,-94.8783414,No,(n/a),No,Yes,(856) 786-9400,"5th & Weart Boulevard, Palmyra, NJ 08065"
237,238,Lodi High School,Public,12-Sep,99 Putnam Street,Lodi,7644,40.8866422,-74.0870138,No,(n/a),No,Yes,(973) 478-6100,"99 Putnam Street, Lodi, NJ 07644"
238,239,Belvidere High School,Public,12-Sep,809 Oxford Street,Belvidere,7823,40.8249316,-75.0666626,No,(n/a),No,Yes,(908) 475-4025,"809 Oxford Street, Belvidere, NJ 07823"
239,240,Central Regional High School,Public,12-Sep,509 Forest Hills Parkway,Bayville,8721,39.8894224,-74.2105845,No,(n/a),No,Yes,(732) 269-1100,"509 Forest Hills Parkway, Bayville, NJ 08721"
240,241,Carteret High School,Public,12-Sep,199 Washington Avenue,Carteret,7008,40.58031,-74.22737860000001,No,(n/a),No,No,(732) 541-8960,"199 Washington Avenue, Carteret, NJ 07008"
241,242,Rancocas Valley Regional High School,Public,12-Sep,520 Jacksonville Road,Mount Holly,8060,40.0025146,-74.78298749999999,No,(n/a),No,Yes,(609) 267-0830,"520 Jacksonville Road, Mount Holly, NJ 08060"
242,243,South Amboy Middle/High School,Public,12-Jun,200 Governor Harold G Hoffman,South Amboy,8879,40.4814528,-74.2741291,No,(n/a),No,Yes,(732) 316-7669,"200 Governor Harold G Hoffman, South Amboy, NJ 08879"
243,244,Highland Park High School,Public,12-Sep,102 North Fifth Avenue,Highland Park,8904,40.5025008,-74.42558509999999,No,(n/a),No,Yes,(732) 572-2400,"102 North Fifth Avenue, Highland Park, NJ 08904"
244,245,Middle Township High School,Public,12-Sep,300 East Atlantic Avenue,Cape May Court House,8210,39.0753845,-74.8193095,No,(n/a),No,Yes,(609) 465-1852,"300 East Atlantic Avenue, Cape May Court House, NJ 08210"
245,246,Gloucester City Junior Senior High School,Public,12-Jul,1300 Market Street,Gloucester City,8030,39.8851676,-75.1109651,No,(n/a),No,Yes,(856) 456-7000,"1300 Market Street, Gloucester City, NJ 08030"
246,247,Sussex County Technical School,Public,12-Sep,105 North Church Road,Sparta,7871,41.09744329999999,-74.6521228,No,(n/a),No,Yes,(973) 383-6700,"105 North Church Road, Sparta, NJ 07871"
247,248,Hoboken High School,Public,12-Sep,Ninth & Clinton Sts,Hoboken,7030,40.7606894,-73.97038529999999,No,(n/a),No,Yes,(201) 356-3701,"Ninth & Clinton Sts, Hoboken, NJ 07030"
248,249,Hopatcong High School,Public,12-Sep,2A Windsor Ave,Hopatcong,7843,40.9266352,-74.6708538,No,(n/a),No,No,(973) 398-8803,"2A Windsor Ave, Hopatcong, NJ 07843"
249,250,Pinelands Regional High School,Public,12-Oct,565 Nugentown Road,Little Egg Harbor,8087,39.6098794,-74.3596761,No,(n/a),No,No,(609) 296-3106,"565 Nugentown Road, Little Egg Harbor, NJ 08087"
250,251,Overbrook Senior High School,Public,12-Sep,1200 Turnersville Road,Pine Hill,8021,39.7778281,-74.9659929,No,(n/a),No,Yes,(856) 767-8000,"1200 Turnersville Road, Pine Hill, NJ 08021"
251,252,County Prep High School,Public,12-Sep,525 Montgomery Street,Jersey City,7306,40.7216797,-74.059479,No,(n/a),No,Yes,(201) 631-6302,"525 Montgomery Street, Jersey City, NJ 07306"
252,253,Dunellen High School,Public,12-Sep,411 First Street,Dunellen,8812,40.5922364,-74.4680411,No,(n/a),No,Yes,(732) 968-0885,"411 First Street, Dunellen, NJ 08812"
253,254,Oakcrest High School,Public,12-Sep,1824 Dr Dennis Foreman Drive,Mays Landing,8330,39.4547918,-74.67554369999999,No,(n/a),No,Yes,(609) 909-2600,"1824 Dr Dennis Foreman Drive, Mays Landing, NJ 08330"
254,255,West Orange High School,Public,12-Sep,51 Conforti Ave,West Orange,7052,40.8066775,-74.26020679999999,No,(n/a),No,No,(973) 669-5301,"51 Conforti Ave, West Orange, NJ 07052"
255,256,Butler High School,Public,12-Sep,38 Bartholdi Avenue,Butler,7405,40.9977954,-74.3396392,No,(n/a),No,Yes,(973) 492-2000,"38 Bartholdi Avenue, Butler, NJ 07405"
256,257,Franklin High School,Public,12-Sep,500 Elizabeth Avenue,Somerset,8873,40.5202296,-74.55237,No,(n/a),No,No,(732) 302-4200,"500 Elizabeth Avenue, Somerset, NJ 08873"
257,258,Memorial Senior High School,Public,12-Sep,375 River Dr,Elmwood Park,7407,40.9095873,-74.1295931,No,(n/a),No,No,(201) 796-8700,"375 River Dr, Elmwood Park, NJ 07407"
258,259,Maple Shade High School,Public,12-Jul,180 Frederick Ave,Maple Shade,8052,39.9477723,-75.006075,No,(n/a),No,Yes,(856) 779-2880,"180 Frederick Ave, Maple Shade, NJ 08052"
259,260,Egg Harbor Township High School,Public,12-Sep,24 High School Drive,Egg Harbor Township,8234,39.3947754,-74.6285146,No,(n/a),No,No,(609) 653-0100,"24 High School Drive, Egg Harbor Township, NJ 08234"
260,261,Toms River High School South,Public,12-Sep,55 Hyers Street,Toms River,8753,39.955879,-74.195262,No,(n/a),No,No,(732) 505-5738,"55 Hyers Street, Toms River, NJ 08753"
261,262,Paulsboro High School,Public,12-Sep,670 N Delaware St,Paulsboro,8066,39.8368692,-75.24480260000001,No,(n/a),No,Yes,(856) 423-2222,"670 N Delaware St, Paulsboro, NJ 08066"
262,263,Hamilton North - Nottingham,Public,12-Sep,1055 Klockner Road,Hamilton,8619,40.2297455,-74.7092898,No,(n/a),No,No,(609) 631-4161,"1055 Klockner Road, Hamilton, NJ 08619"
263,264,Deptford Township High School,Public,12-Sep,575 S Fox Run Rd,Deptford,8096,39.81183,-75.110807,No,(n/a),No,Yes,(856) 232-2713,"575 S Fox Run Rd, Deptford, NJ 08096"
264,265,Riverside High School,Public,12-Sep,112 E Washington Street,Riverside,8075,40.0340813,-74.9553087,No,(n/a),No,No,(856) 461-1255,"112 E Washington Street, Riverside, NJ 08075"
265,266,Middlesex County Vocational School Perth Amboy,Public,12-Sep,457 High Street,Perth Amboy,8861,40.5141188,-74.2628199,No,(n/a),No,Yes,(732) 376-6300,"457 High Street, Perth Amboy, NJ 08861"
266,267,Bayonne High School,Public,12-Sep,669 Avenue A,Bayonne,7002,40.6717314,-74.1215821,No,(n/a),No,No,(201) 858-5900,"669 Avenue A, Bayonne, NJ 07002"
267,268,Union High School,Public,12-Sep,2350 North Third Street,Union,7083,40.7035758,-74.2837697,No,(n/a),No,Yes,(908) 851-6500,"2350 North Third Street, Union, NJ 07083"
268,269,Ewing High School,Public,12-Sep,900 Parkway Ave,Ewing,8618,40.25495,-74.7906435,No,(n/a),No,Yes,(609) 538-9800,"900 Parkway Ave, Ewing, NJ 08618"
269,270,Clifton High School,Public,12-Sep,333 Colfax Avenue,Clifton,7013,40.8696445,-74.1633561,No,(n/a),No,No,(973) 470-2312,"333 Colfax Avenue, Clifton, NJ 07013"
270,271,Memorial High School,Public,12-Sep,5501 Park Ave,West New York,7093,40.7834587,-74.0126605,No,(n/a),No,Yes,(201) 553-4110,"5501 Park Ave, West New York, NJ 07093"
271,272,Cumberland Regional High School,Public,12-Sep,90 Silver Lake Road,Bridgeton,8302,39.474169,-75.223569,No,(n/a),No,Yes,(856) 451-9400,"90 Silver Lake Road, Bridgeton, NJ 08302"
272,273,Chartertech High School for the Performing Arts,"Public, Charter",12-Sep,413 New Road,Somers Point,8244,39.3273841,-74.6000558,Yes,(n/a),No,Yes,(609) 926-7694,"413 New Road, Somers Point, NJ 08244"
273,274,Dwight Morrow High School/Academies@Englewood,Public,12-Sep,274 Knickerbocker Rd,Englewood,7631,40.9073806,-73.9832784,No,(n/a),No,Yes,(201) 862-6039,"274 Knickerbocker Rd, Englewood, NJ 07631"
274,275,Harrison High School,Public,12-Sep,401 Kingsland Avenue,Harrison,7029,40.7497787,-74.14766809999999,No,(n/a),No,Yes,(973) 482-5050,"401 Kingsland Avenue, Harrison, NJ 07029"
275,276,Passaic County Technical Institute,Public,12-Sep,45 Reinhardt Road,Wayne,7470,40.9309012,-74.2023751,No,(n/a),No,Yes,(973) 790-6000,"45 Reinhardt Road, Wayne, NJ 07470"
276,277,Buena Regional High School,Public,12-Sep,125 Weymouth Road,Buena,8310,39.5363866,-74.9187764,No,(n/a),No,No,(856) 697-2400,"125 Weymouth Road, Buena, NJ 08310"
277,278,Technology High School,Public,12-Sep,223 Broadway,Newark,7102,40.7573799,-74.16908959999999,No,(n/a),No,Yes,(973) 481-5962,"223 Broadway, Newark, NJ 07102"
278,279,Lindenwold High School,Public,12-Sep,801 Egg Harbor Road,Lindenwold,8021,39.820611,-74.9755382,No,(n/a),No,Yes,(856) 741-0320,"801 Egg Harbor Road, Lindenwold, NJ 08021"
279,280,Glassboro High School,Public,12-Sep,560 Joseph L Bowe Blvd,Glassboro,8028,39.715868,-75.121398,No,(n/a),No,Yes,(856) 652-2700,"560 Joseph L Bowe Blvd, Glassboro, NJ 08028"
280,281,Garfield High School,Public,12-Sep,500 Palisade Ave,Garfield,7026,40.8826883,-74.1125259,No,(n/a),No,Yes,(973) 340-5010,"500 Palisade Ave, Garfield, NJ 07026"
281,282,Winslow Township High School,Public,12-Sep,10 Cooper Folly Road,Atco,8004,39.7454119,-74.9070824,No,(n/a),No,Yes,(856) 767-1850,"10 Cooper Folly Road, Atco, NJ 08004"
282,283,Essex County Newark Technical,Public,12-Sep,91 West Market Street,Newark,7103,40.740262,-74.18170289999999,No,(n/a),No,Yes,(973) 412-2204,"91 West Market Street, Newark, NJ 07103"
283,284,Keyport High School,Public,12-Sep,351 Broad Street,Keyport,7735,40.42840899999999,-74.1961956,No,(n/a),No,Yes,(732) 212-6100,"351 Broad Street, Keyport, NJ 07735"
284,285,Hackensack High School,Public,12-Sep,First & Beech Streets,Hackensack,7601,36.321633,-95.848855,No,(n/a),No,Yes,(201) 646-7900,"First & Beech Streets, Hackensack, NJ 07601"
285,286,Dover High School,Public,12-Sep,100 Grace Street,Dover,7801,40.8979444,-74.559693,No,(n/a),No,Yes,(973) 989-2010,"100 Grace Street, Dover, NJ 07801"
286,287,Passaic County-Manchester Regional High School,Public,12-Sep,70 Church Street,Haledon,7508,40.9415722,-74.1785841,No,(n/a),No,Yes,(973) 389-2821,"70 Church Street, Haledon, NJ 07508"
287,288,Neptune High School,Public,12-Sep,55 Neptune Boulevard,Neptune,7753,40.2126432,-74.0362548,No,(n/a),No,No,(732) 776-2200,"55 Neptune Boulevard, Neptune, NJ 07753"
288,289,Keansburg High School,Public,12-Sep,140 Port Monmouth Road,Keansburg,7734,40.4399536,-74.12386409999999,No,(n/a),No,No,(732) 787-2007,"140 Port Monmouth Road, Keansburg, NJ 07734"
289,290,Liberty High School,Public,12-Sep,299 Sip Avenue,Jersey City,7306,40.7324362,-74.0741188,No,(n/a),No,Yes,(201) 714-4373,"299 Sip Avenue, Jersey City, NJ 07306"
290,291,Camden County Technical School-Pennsauken,Public,12-Sep,6008 Browning Road,Pennsauken,8109,39.9392068,-75.06689519999999,No,(n/a),No,Yes,(856) 663-1040,"6008 Browning Road, Pennsauken, NJ 08109"
291,292,Belleville High School,Public,12-Sep,100 Passaic Ave,Belleville,7109,40.8029973,-74.161613,No,(n/a),No,Yes,(973) 532-5012,"100 Passaic Ave, Belleville, NJ 07109"
292,293,North Plainfield Middle School,Public,12-Sep,34 Wilson Avenue,North Plainfield,7060,40.62277,-74.438452,No,(n/a),No,No,(908) 769-6040,"34 Wilson Avenue, North Plainfield, NJ 07060"
293,294,Penns Grove High School,Public,12-Sep,334 Harding Highway,Carneys Point,8069,39.7158329,-75.4580026,No,(n/a),No,Yes,(856) 299-6300,"334 Harding Highway, Carneys Point, NJ 08069"
294,295,Burlington City High School,Public,12-Jul,100 Blue Devil WAy,Burlington,8016,40.0701318,-74.85164189999999,No,(n/a),No,Yes,(609) 387-5800,"100 Blue Devil WAy, Burlington, NJ 08016"
295,296,Henry Hudson Regional School,Public,12-Jul,1 Grand Tour,Highlands,7732,40.3923689,-73.9852986,No,(n/a),No,Yes,(732) 872-0900,"1 Grand Tour, Highlands, NJ 07732"
296,297,Pemberton Township High School,Public,12-Sep,148 Arneys Mount Road,Pemberton,8068,39.9928022,-74.6858262,No,(n/a),No,No,(609) 893-8141,"148 Arneys Mount Road, Pemberton, NJ 08068"
297,298,Rahway High School,Public,12-Sep,1012 Madison Ave,Rahway,7065,40.6108308,-74.29412909999999,No,(n/a),No,No,(732) 396-1090,"1012 Madison Ave, Rahway, NJ 07065"
298,299,Bloomfield High School,Public,12-Sep,160 Broad Street,Bloomfield,7003,40.7994581,-74.1974797,No,(n/a),No,Yes,(973) 680-8500,"160 Broad Street, Bloomfield, NJ 07003"
299,300,Burlington County Institute of Technology - Westampton,Public,12-Sep,695 Woodlane Road,Westampton,8060,40.0181596,-74.8232872,No,(n/a),No,Yes,(609) 267-4226,"695 Woodlane Road, Westampton, NJ 08060"
300,301,Vineland Senior High School,Public,12-Sep,2880 E Chestnut Ave,Vineland,8360,39.4775542,-74.9725718,No,(n/a),No,Yes,(856) 794-6800,"2880 E Chestnut Ave, Vineland, NJ 08360"
301,302,Hamilton West-Watson,Public,12-Sep,2720 South Clinton Avenue,Hamilton,8610,40.199059,-74.723361,No,(n/a),No,No,(609) 631-4168,"2720 South Clinton Avenue, Hamilton, NJ 08610"
302,303,Bound Brook High School,Public,12-Sep,111 West Union Avenue,Bound Brook,8805,40.5676296,-74.5363497,No,(n/a),No,No,(732) 652-7950,"111 West Union Avenue, Bound Brook, NJ 08805"
303,304,Hoboken Charter School,"Public, Charter, Alternative",K-12,713 Washington St,Hoboken,7030,40.7452277,-74.02815319999999,Yes,(n/a),No,Yes,(201) 963-0222,"713 Washington St, Hoboken, NJ 07030"
304,305,Salem High School,Public,12-Sep,219 Walnut St,Salem,8079,39.5607665,-75.48364149999999,No,(n/a),No,Yes,(856) 935-3900,"219 Walnut St, Salem, NJ 08079"
305,306,Somerset County Vocational Technical High School,Public,12-Sep,14 Vogt Drive,Bridgewater,8807,40.5881365,-74.6045157,No,(n/a),No,Yes,(908) 526-8900,"14 Vogt Drive, Bridgewater, NJ 08807"
306,307,William L Dickinson High School,Public,12-Sep,2 Palisade Ave,Jersey City,7306,40.729802,-74.05384099999999,No,(n/a),No,Yes,(201) 714-4400,"2 Palisade Ave, Jersey City, NJ 07306"
307,308,Long Branch High School,Public,12-Sep,404 Indiana Avenue,Long Branch,7740,40.2902774,-73.9901132,No,(n/a),No,Yes,(732) 229-7300,"404 Indiana Avenue, Long Branch, NJ 07740"
308,309,Burlington County Institute of Technology - Medford,Public,12-Sep,10 Hawkin Road,Medford,8055,39.8943912,-74.80266859999999,No,(n/a),No,Yes,(609) 654-0200,"10 Hawkin Road, Medford, NJ 08055"
309,310,Lakewood High School,Public,12-Sep,855 Somerset Avenue,Lakewood,8701,40.0992708,-74.19313629999999,No,(n/a),No,Yes,(732) 905-3500,"855 Somerset Avenue, Lakewood, NJ 08701"
310,311,Linden High School,Public,12-Sep,121 W St George Ave,Linden,7036,40.5929126,-74.2906053,No,(n/a),No,No,(908) 486-5432,"121 W St George Ave, Linden, NJ 07036"
311,312,Essex County Donald M. Payne Senior School of Technology,Public,12-Sep,498-544 West Market St,Newark,7107,40.7506839,-74.1938246,No,(n/a),No,Yes,(973) 412-2203,"498-544 West Market St, Newark, NJ 07107"
312,313,Willingboro High School,Public,12-Sep,20 Jfk Way,Willingboro,8046,40.0170627,-74.8859271,No,(n/a),No,Yes,(609) 835-8800,"20 Jfk Way, Willingboro, NJ 08046"
313,314,Pennsauken High School,Public,12-Sep,800 Hylton Road,Pennsauken,8110,39.986962,-75.02618799999999,No,(n/a),No,Yes,(856) 662-8500,"800 Hylton Road, Pennsauken, NJ 08110"
314,315,Leap Academy University Charter School,"Public, Charter, Alternative",K-12,130 North Broadway,Camden,8102,39.9460794,-75.1183046,Yes,(n/a),No,Yes,(856) 614-0400,"130 North Broadway, Camden, NJ 08102"
315,316,Middlesex County Vocational School Piscataway,Public,12-Sep,21 Suttons Lane,Piscataway,8854,40.52491819999999,-74.4281013,No,(n/a),No,Yes,(732) 985-0717,"21 Suttons Lane, Piscataway, NJ 08854"
316,317,Wildwood High School,Public,12-Sep,4300 Pacific Ave,Wildwood,8260,38.9857374,-74.8197327,No,(n/a),No,Yes,(609) 522-7922,"4300 Pacific Ave, Wildwood, NJ 08260"
317,318,Woodbury Junior-Senior High School,Public,12-Jun,25 N. Broad Street,Woodbury,8096,39.8397915,-75.1536716,No,(n/a),No,Yes,(856) 853-0123,"25 N. Broad Street, Woodbury, NJ 08096"
318,319,Hillside High School,Public,12-Sep,1085 Liberty Ave,Hillside,7205,40.6913258,-74.2360149,No,(n/a),No,Yes,(908) 352-7664,"1085 Liberty Ave, Hillside, NJ 07205"
319,320,Middlesex County Vocational Academy Allied Health & Biomedical Science,Public,12-Aug,1 Convery Boulevard,Woodbridge,7095,40.5406408,-74.278351,No,(n/a),No,No,(732) 634-5858,"1 Convery Boulevard, Woodbridge, NJ 07095"
320,321,East Side High School,Public,12-Sep,238 Van Buren St,Newark,7105,40.7240215,-74.1587232,No,(n/a),No,Yes,(973) 465-4900,"238 Van Buren St, Newark, NJ 07105"
321,322,Perth Amboy High School,Public,12-Sep,300 Eagle Ave,Perth Amboy,8861,40.52365229999999,-74.2702924,No,(n/a),No,Yes,(732) 376-6030,"300 Eagle Ave, Perth Amboy, NJ 08861"
322,323,Atlantic City High School,Public,12-Sep,1400 N Albany Avenue,Atlantic City,8401,39.366993,-74.477057,No,(n/a),No,Yes,(609) 343-7300,"1400 N Albany Avenue, Atlantic City, NJ 08401"
323,324,Millville Senior High School,Public,12-Sep,200 Wade Blvd,Millville,8332,39.39915000000001,-75.0198268,No,(n/a),No,Yes,(856) 327-6040,"200 Wade Blvd, Millville, NJ 08332"
324,325,Middlesex County Vocational School East Brunswick,Public,12-Sep,112 Rues Lane,East Brunswick,8816,40.4220816,-74.38601229999999,No,(n/a),No,No,(732) 254-8700,"112 Rues Lane, East Brunswick, NJ 08816"
325,326,University Academy Charter High School,"Public, Charter",12-Sep,275 West Side Avenue,Jersey City,7305,40.712294,-74.0919894,Yes,(n/a),No,Yes,(201) 200-3200,"275 West Side Avenue, Jersey City, NJ 07305"
326,327,New Brunswick High School,Public,12-Sep,1000 Somerset St,New Brunswick,8901,40.4807916,-74.482053,No,(n/a),No,Yes,(732) 745-5300,"1000 Somerset St, New Brunswick, NJ 08901"
327,328,Abraham Clark High School,Public,12-Sep,122 East 6th Ave,Roselle,7203,40.653543,-74.2616738,No,(n/a),No,Yes,(908) 298-2000,"122 East 6th Ave, Roselle, NJ 07203"
328,329,Passaic High School No. 12,Public,12-Sep,170 Paulison Ave.,Passaic,7055,40.8567838,-74.1276323,No,(n/a),No,Yes,(973) 470-5600,"170 Paulison Ave., Passaic, NJ 07055"
329,330,Bridgeton High School,Public,12-Sep,111 N West Avenue,Bridgeton,8302,39.4377182,-75.244895,No,(n/a),No,Yes,(856) 455-8030,"111 N West Avenue, Bridgeton, NJ 08302"
330,331,Academy Charter High School,"Public, Charter",12-Sep,1725 Main Street,Lake Como,7719,40.1712029,-74.0278548,Yes,(n/a),No,Yes,(732) 681-8377,"1725 Main Street, Lake Como, NJ 07719"
331,332,Cicely L. Tyson Community Middle/High School,Public,12-Jun,35 Winans Street,East Orange,7017,40.764012,-74.210664,No,(n/a),No,Yes,(973) 414-8600,"35 Winans Street, East Orange, NJ 07017"
332,333,James J Ferris High School,Public,12-Sep,35 Colgate St,Jersey City,7302,40.7217188,-74.0528731,No,(n/a),No,Yes,(201) 915-6660,"35 Colgate St, Jersey City, NJ 07302"
333,334,Elizabeth High School - Frank J Cicarell Academy,Public,12-Sep,40 Morrell Street,Elizabeth,7202,40.6634263,-74.2105038,No,(n/a),No,Yes,(908) 436-5870,"40 Morrell Street, Elizabeth, NJ 07202"
334,335,Camden County Technical School-GTC,Public,12-Sep,343 Berlin Cross Keys Road,Sicklerville,8081,39.765079,-74.975851,No,(n/a),No,Yes,(856) 767-7000,"343 Berlin Cross Keys Road, Sicklerville, NJ 08081"
335,336,Irvington High School,Public,12-Sep,1253 Clinton Ave,Irvington,7111,40.7297385,-74.234324,No,(n/a),No,Yes,(973) 399-6897,"1253 Clinton Ave, Irvington, NJ 07111"
336,337,Plainfield High School,Public,12-Sep,950 Park Avenue,Plainfield,7060,40.6114376,-74.41330099999999,No,(n/a),No,Yes,(908) 731-4390,"950 Park Avenue, Plainfield, NJ 07060"
337,338,Pleasantville High School,Public,12-Sep,701 Mill Road,Pleasantville,8232,39.406362,-74.52615,No,(n/a),No,Yes,(609) 383-6900,"701 Mill Road, Pleasantville, NJ 08232"
338,339,Weequahic High School,Public,12-Sep,279 Chancellor Ave,Newark,7112,40.7093041,-74.2200419,No,(n/a),No,Yes,(973) 705-3923,"279 Chancellor Ave, Newark, NJ 07112"
339,340,East Orange Campus High School,Public,12-Sep,344 Prospect Street,East Orange,7017,40.776098,-74.2074603,No,(n/a),No,Yes,(973) 266-7300,"344 Prospect Street, East Orange, NJ 07017"
340,341,West Side High School,Public,12-Sep,403 South Orange Avenue,Newark,7103,40.7422366,-74.2035333,No,(n/a),No,No,(973) 733-7019,"403 South Orange Avenue, Newark, NJ 07103"
341,342,Lincoln High School,Public,12-Sep,60 Crescent Ave,Jersey City,7304,40.7174208,-74.0700804,No,(n/a),No,Yes,(201) 915-6700,"60 Crescent Ave, Jersey City, NJ 07304"
342,343,Trenton Central High School - Main Campus,Public,12-Oct,171 Division Street,Trenton,8611,40.21192509999999,-74.7455255,No,(n/a),No,Yes,(609) 278-7260,"171 Division Street, Trenton, NJ 08611"
343,344,Orange High School,Public,12-Sep,400 Lincoln Ave,Orange,7050,40.7658026,-74.2395074,No,(n/a),No,Yes,(973) 677-4050,"400 Lincoln Ave, Orange, NJ 07050"
344,345,Asbury Park High School,Public,12-Sep,1001 Sunset Avenue,Asbury Park,7712,40.2284978,-74.0131736,No,(n/a),No,Yes,(732) 776-2638,"1001 Sunset Avenue, Asbury Park, NJ 07712"
345,346,Malcolm X Shabazz High School,Public,12-Sep,80 Johnson Ave,Newark,7108,40.7182491,-74.1917012,No,(n/a),No,Yes,(973) 733-6974,"80 Johnson Ave, Newark, NJ 07108"
346,347,Henry Snyder High School,Public,12-Sep,239 Bergen Ave,Jersey City,7305,40.71039409999999,-74.0846276,No,(n/a),No,Yes,(201) 915-6600,"239 Bergen Ave, Jersey City, NJ 07305"
347,348,Central High School,Public,12-Sep,250 18th Avenue,Newark,7103,40.7296139,-74.1935817,No,(n/a),No,Yes,(973) 733-6378,"250 18th Avenue, Newark, NJ 07103"
348,349,Barringer Arts High School,Public,12-Sep,90 Parker St,Newark,7104,40.7554216,-74.17985200000001,No,(n/a),No,Yes,(973) 268-5125,"90 Parker St, Newark, NJ 07104"
349,350,Daylight/Twilight High School,Public,12-Sep,501 Edgewood Avenue,Trenton,8618,40.2284489,-74.7803364,No,(n/a),No,Yes,(609) 656-4850,"501 Edgewood Avenue, Trenton, NJ 08618"
350,351,Camden High School,Public,12-Sep,1875 Park Boulevard,Camden,8103,39.9309249,-75.0953337,No,(n/a),No,Yes,(856) 966-5100,"1875 Park Boulevard, Camden, NJ 08103"
351,352,Essex County West Caldwell Technical,Public,12-Sep,620 Passaic Ave,West Caldwell,7006,40.8530822,-74.29257059999999,No,(n/a),No,Yes,(973) 412-2205,"620 Passaic Ave, West Caldwell, NJ 07006"
352,353,Newark Vocational High School,Public,12-Sep,403 South Orange Avenue,Newark,7103,40.7422366,-74.2035333,No,(n/a),No,Yes,(973) 733-7019,"403 South Orange Avenue, Newark, NJ 07103"
353,354,Woodrow Wilson High School,Public,12-Sep,3100 Federal Street,Camden,8105,39.9466205,-75.0775176,No,(n/a),No,Yes,(856) 966-5300,"3100 Federal Street, Camden, NJ 08105"
